[
    {
        "Altitude(m)": 604983.0529731194,
        "Argument of Periapsis(deg)": 0.0,
        "Eccentricity": 0.0,
        "Inclination(deg)": 60.0,
        "Latitude(deg)": -0.09265119939092505,
        "Longitude(deg)": 0.08391655028391129,
        "Mean Anomaly(deg)": -180.0,
        "RAAN(deg)": 280.0,
        "Satellite Name": "Test1 1243",
        "Satellite Number": 1243,
        "Semi-Major Axis(m)": 6980739.136638005,
        "Time(s)": 0
    },
    {
        "Altitude(m)": 605055.3324525844,
        "Argument of Periapsis(deg)": 0.00010418945913296404,
        "Eccentricity": 0.0,
        "Inclination(deg)": 60.0,
        "Latitude(deg)": -0.6330606360113021,
        "Longitude(deg)": 0.35204233285087233,
        "Mean Anomaly(deg)": -179.37989385453815,
        "RAAN(deg)": 279.99957995086027,
        "Satellite Name": "Test1 1243",
        "Satellite Number": 1243,
        "Semi-Major Axis(m)": 6980739.136638005,
        "Time(s)": 10
    }
]